{
    "type": "FeatureCollection",
    "features": [
        {
            "type": "Feature",
            "geometry": {
                "type": "Point",
                "coordinates": [
                    -81.890112,
                    30.218989
                ]
            },
            "properties": {
                "hex": "ae268a",
                "flight": "        ",
                "operator": "Unknown",
                "altitude": "ground",
                "ground_speed": 1.9,
                "track": 182.81,
                "squawk": "N/A",
                "messages": 19
            }
        },
        {
            "type": "Feature",
            "geometry": {
                "type": "Point",
                "coordinates": [
                    -77.63518,
                    35.30666
                ]
            },
            "properties": {
                "hex": "ae4ae1",
                "flight": "C2709   ",
                "operator": "Unknown",
                "altitude": 375,
                "ground_speed": 155.9,
                "track": 41.36,
                "squawk": "5354",
                "messages": 9635
            }
        },
        {
            "type": "Feature",
            "geometry": {
                "type": "Point",
                "coordinates": [
                    -121.568298,
                    38.822611
                ]
            },
            "properties": {
                "hex": "a7fb70",
                "flight": "REH80   ",
                "operator": "REACH AIR MEDICAL SERVICES LLC",
                "altitude": 1450,
                "ground_speed": 126.7,
                "track": 308.59,
                "squawk": "1200",
                "messages": 11428
            }
        },
        {
            "type": "Feature",
            "geometry": {
                "type": "Point",
                "coordinates": [
                    -114.242871,
                    33.016342
                ]
            },
            "properties": {
                "hex": "aae7b1",
                "flight": "N801XR  ",
                "operator": "Unknown",
                "altitude": "ground",
                "ground_speed": 0.7,
                "track": 0.0,
                "squawk": "4000",
                "messages": 55520
            }
        }
    ],
    "metadata": {
        "updated_at": "2026-08-12 12:24:13"
    }
}